[{"OBJECT_NAME":"STARLINK-3229","OBJECT_ID":"2021-115AD","EPOCH":"2026-03-09T12:13:42.408768","MEAN_MOTION":15.08832801,"ECCENTRICITY":0.0001278,"INCLINATION":53.2178,"RA_OF_ASC_NODE":149.8526,"ARG_OF_PERICENTER":93.5177,"MEAN_ANOMALY":266.5961,"EPHEMERIS_TYPE":0,"CLASSIFICATION_TYPE":"U","NORAD_CAT_ID":49751,"ELEMENT_SET_NO":999,"REV_AT_EPOCH":23551,"BSTAR":3.5157125e-5,"MEAN_MOTION_DOT":2.72e-6,"MEAN_MOTION_DDOT":0},{"OBJECT_NAME":"OBJECT G","OBJECT_ID":"2026-027G","EPOCH":"2026-03-09T21:53:37.288032","MEAN_MOTION":15.12145257,"ECCENTRICITY":0.00120269,"INCLINATION":97.4906,"RA_OF_ASC_NODE":197.8999,"ARG_OF_PERICENTER":227.3105,"MEAN_ANOMALY":132.7114,"EPHEMERIS_TYPE":0,"CLASSIFICATION_TYPE":"U","NORAD_CAT_ID":67752,"ELEMENT_SET_NO":999,"REV_AT_EPOCH":389,"BSTAR":0.00053594907,"MEAN_MOTION_DOT":9.195e-5,"MEAN_MOTION_DDOT":0}]
